{"type": "FeatureCollection", "features": [ {"type": "Feature", "properties": {"norad_id": 35165, "name": "FENGYUN 1C DEB", "group": "fengyun-1c-debris", "lat": -37.87640771204221, "lon": 82.76895833916178, "alt_km": 791.1936549958382, "timestamp": "2025-12-09T23:33:24.142725+00:00", "meta": {"OBJECT_NAME": "FENGYUN 1C DEB", "OBJECT_ID": "1999-025DMV", "EPOCH": "2025-11-30T05:14:00.190464", "MEAN_MOTION": 14.33570134, "ECCENTRICITY": 0.00218891, "INCLINATION": 98.8778, "RA_OF_ASC_NODE": 65.7738, "ARG_OF_PERICENTER": 100.7376, "MEAN_ANOMALY": 259.6273, "EPHEMERIS_TYPE": 0, "CLASSIFICATION_TYPE": "U", "NORAD_CAT_ID": 35165, "ELEMENT_SET_NO": 999, "REV_AT_EPOCH": 89541, "BSTAR": 0.0024382815, "MEAN_MOTION_DOT": 6.727e-05, "MEAN_MOTION_DDOT": 0}, "tle": {"line1": "1 35165U 99025DMV 25334.21805776  .00006727  00000+0  24383-2 0  9991", "line2": "2 35165  98.8778  65.7738 0021889 100.7376 259.6273 14.33570134895419"}}, "geometry": {"type": "Point", "coordinates": [82.76895833916178, -37.87640771204221]}}, {"type": "Feature", "properties": {"norad_id": 35167, "name": "FENGYUN 1C DEB", "group": "fengyun-1c-debris", "lat": 68.00519214323432, "lon": 178.83865811274077, "alt_km": 811.8378030242075, "timestamp": "2025-12-09T23:33:24.142735+00:00", "meta": {"OBJECT_NAME": "FENGYUN 1C DEB", "OBJECT_ID": "1999-025DMX", "EPOCH": "2025-12-08T16:49:14.277216", "MEAN_MOTION": 14.31139931, "ECCENTRICITY": 0.02292262, "INCLINATION": 98.4468, "RA_OF_ASC_NODE": 336.007, "ARG_OF_PERICENTER": 216.1443, "MEAN_ANOMALY": 142.4062, "EPHEMERIS_TYPE": 0, "CLASSIFICATION_TYPE": "U", "NORAD_CAT_ID": 35167, "ELEMENT_SET_NO": 999, "REV_AT_EPOCH": 69962, "BSTAR": 0.0008138603, "MEAN_MOTION_DOT": 2.815e-05, "MEAN_MOTION_DDOT": 0}, "tle": {"line1": "1 35167U 99025DMX 25342.70085969  .00002815  00000+0  81386-3 0  9991", "line2": "2 35167  98.4468 336.0070 0229226 216.1443 142.4062 14.31139931699622"}}, "geometry": {"type": "Point", "coordinates": [178.83865811274077, 68.00519214323432]}}, {"type": "Feature", "properties": {"norad_id": 35168, "name": "FENGYUN 1C DEB", "group": "fengyun-1c-debris", "lat": -32.62003586712025, "lon": 50.71326875329202, "alt_km": 825.3362394938285, "timestamp": "2025-12-09T23:33:24.142745+00:00", "meta": {"OBJECT_NAME": "FENGYUN 1C DEB", "OBJECT_ID": "1999-025DMY", "EPOCH": "2025-12-09T12:23:11.586912", "MEAN_MOTION": 14.15519226, "ECCENTRICITY": 0.01260323, "INCLINATION": 98.2749, "RA_OF_ASC_NODE": 235.6254, "ARG_OF_PERICENTER": 137.0703, "MEAN_ANOMALY": 224.0393, "EPHEMERIS_TYPE": 0, "CLASSIFICATION_TYPE": "U", "NORAD_CAT_ID": 35168, "ELEMENT_SET_NO": 999, "REV_AT_EPOCH": 57878, "BSTAR": 0.00037502417, "MEAN_MOTION_DOT": 7.53e-06, "MEAN_MOTION_DDOT": 0}, "tle": {"line1": "1 35168U 99025DMY 25343.51610633  .00000753  00000+0  37502-3 0  9994", "line2": "2 35168  98.2749 235.6254 0126032 137.0703 224.0393 14.15519226578780"}}, "geometry": {"type": "Point", "coordinates": [50.71326875329202, -32.62003586712025]}}, {"type": "Feature", "properties": {"norad_id": 35169, "name": "FENGYUN 1C DEB", "group": "fengyun-1c-debris", "lat": -68.32072082383162, "lon": 23.41653180764553, "alt_km": 779.1707053921928, "timestamp": "2025-12-09T23:33:24.142759+00:00", "meta": {"OBJECT_NAME": "FENGYUN 1C DEB", "OBJECT_ID": "1999-025DMZ", "EPOCH": "2025-12-05T11:24:48.463488", "MEAN_MOTION": 14.58604827, "ECCENTRICITY": 0.01525013, "INCLINATION": 99.1294, "RA_OF_ASC_NODE": 222.329, "ARG_OF_PERICENTER": 129.6073, "MEAN_ANOMALY": 231.8702, "EPHEMERIS_TYPE": 0, "CLASSIFICATION_TYPE": "U", "NORAD_CAT_ID": 35169, "ELEMENT_SET_NO": 999, "REV_AT_EPOCH": 65674, "BSTAR": 0.00095565714, "MEAN_MOTION_DOT": 5.168e-05, "MEAN_MOTION_DDOT": 0}, "tle": {"line1": "1 35169U 99025DMZ 25339.47556092  .00005168  00000+0  95566-3 0  9992", "line2": "2 35169  99.1294 222.3290 0152501 129.6073 231.8702 14.58604827656748"}}, "geometry": {"type": "Point", "coordinates": [23.41653180764553, -68.32072082383162]}}, {"type": "Feature", "properties": {"norad_id": 35171, "name": "FENGYUN 1C DEB", "group": "fengyun-1c-debris", "lat": -43.012238454971516, "lon": -53.101997749947074, "alt_km": 938.8300309718716, "timestamp": "2025-12-09T23:33:24.142769+00:00", "meta": {"OBJECT_NAME": "FENGYUN 1C DEB", "OBJECT_ID": "1999-025DNB", "EPOCH": "2025-12-08T20:39:18.991872", "MEAN_MOTION": 13.94938085, "ECCENTRICITY": 0.0137735, "INCLINATION": 99.0089, "RA_OF_ASC_NODE": 134.3144, "ARG_OF_PERICENTER": 329.4513, "MEAN_ANOMALY": 29.8678, "EPHEMERIS_TYPE": 0, "CLASSIFICATION_TYPE": "U", "NORAD_CAT_ID": 35171, "ELEMENT_SET_NO": 999, "REV_AT_EPOCH": 88504, "BSTAR": 0.0021912, "MEAN_MOTION_DOT": 3.145e-05, "MEAN_MOTION_DDOT": 0}, "tle": {"line1": "1 35171U 99025DNB 25342.86063648  .00003145  00000+0  21912-2 0  9998", "line2": "2 35171  99.0089 134.3144 0137735 329.4513  29.8678 13.94938085885042"}}, "geometry": {"type": "Point", "coordinates": [-53.101997749947074, -43.012238454971516]}}, {"type": "Feature", "properties": {"norad_id": 35173, "name": "FENGYUN 1C DEB", "group": "fengyun-1c-debris", "lat": 36.18252759628018, "lon": 48.364831981166034, "alt_km": 1483.6461268790172, "timestamp": "2025-12-09T23:33:24.142780+00:00", "meta": {"OBJECT_NAME": "FENGYUN 1C DEB", "OBJECT_ID": "1999-025DND", "EPOCH": "2025-12-09T00:00:47.707488", "MEAN_MOTION": 13.37302721, "ECCENTRICITY": 0.04903979, "INCLINATION": 99.784, "RA_OF_ASC_NODE": 54.6686, "ARG_OF_PERICENTER": 222.6745, "MEAN_ANOMALY": 133.5303, "EPHEMERIS_TYPE": 0, "CLASSIFICATION_TYPE": "U", "NORAD_CAT_ID": 35173, "ELEMENT_SET_NO": 999, "REV_AT_EPOCH": 65779, "BSTAR": 0.0034943257, "MEAN_MOTION_DOT": 3.612e-05, "MEAN_MOTION_DDOT": 0}, "tle": {"line1": "1 35173U 99025DND 25343.00055217  .00003612  00000+0  34943-2 0  9997", "line2": "2 35173  99.7840  54.6686 0490397 222.6745 133.5303 13.37302721657794"}}, "geometry": {"type": "Point", "coordinates": [48.364831981166034, 36.18252759628018]}}, {"type": "Feature", "properties": {"norad_id": 35174, "name": "FENGYUN 1C DEB", "group": "fengyun-1c-debris", "lat": 66.84049303024459, "lon": -63.79759155268914, "alt_km": 623.9556942787431, "timestamp": "2025-12-09T23:33:24.142790+00:00", "meta": {"OBJECT_NAME": "FENGYUN 1C DEB", "OBJECT_ID": "1999-025DNE", "EPOCH": "2025-11-20T15:53:09.659040", "MEAN_MOTION": 14.97261972, "ECCENTRICITY": 0.01569814, "INCLINATION": 98.9653, "RA_OF_ASC_NODE": 295.6935, "ARG_OF_PERICENTER": 254.7539, "MEAN_ANOMALY": 103.6277, "EPHEMERIS_TYPE": 0, "CLASSIFICATION_TYPE": "U", "NORAD_CAT_ID": 35174, "ELEMENT_SET_NO": 999, "REV_AT_EPOCH": 89835, "BSTAR": 0.0019136785, "MEAN_MOTION_DOT": 0.00028569, "MEAN_MOTION_DDOT": 0}, "tle": {"line1": "1 35174U 99025DNE 25324.66191735  .00028569  00000+0  19137-2 0  9991", "line2": "2 35174  98.9653 295.6935 0156981 254.7539 103.6277 14.97261972898353"}}, "geometry": {"type": "Point", "coordinates": [-63.79759155268914, 66.84049303024459]}}, {"type": "Feature", "properties": {"norad_id": 35175, "name": "FENGYUN 1C DEB", "group": "fengyun-1c-debris", "lat": -70.02671115658941, "lon": 16.934677217700465, "alt_km": 787.0574232196859, "timestamp": "2025-12-09T23:33:24.142801+00:00", "meta": {"OBJECT_NAME": "FENGYUN 1C DEB", "OBJECT_ID": "1999-025DNF", "EPOCH": "2025-12-07T17:49:32.813760", "MEAN_MOTION": 14.2129013, "ECCENTRICITY": 0.00571803, "INCLINATION": 98.5747, "RA_OF_ASC_NODE": 350.2325, "ARG_OF_PERICENTER": 294.8485, "MEAN_ANOMALY": 64.6753, "EPHEMERIS_TYPE": 0, "CLASSIFICATION_TYPE": "U", "NORAD_CAT_ID": 35175, "ELEMENT_SET_NO": 999, "REV_AT_EPOCH": 61164, "BSTAR": 0.00067844318, "MEAN_MOTION_DOT": 1.46e-05, "MEAN_MOTION_DDOT": 0}, "tle": {"line1": "1 35175U 99025DNF 25341.74274090  .00001460  00000+0  67844-3 0  9996", "line2": "2 35175  98.5747 350.2325 0057180 294.8485  64.6753 14.21290130611646"}}, "geometry": {"type": "Point", "coordinates": [16.934677217700465, -70.02671115658941]}}, {"type": "Feature", "properties": {"norad_id": 35176, "name": "FENGYUN 1C DEB", "group": "fengyun-1c-debris", "lat": -10.864848247428103, "lon": -27.492411520013476, "alt_km": 829.4575409206991, "timestamp": "2025-12-09T23:33:24.142812+00:00", "meta": {"OBJECT_NAME": "FENGYUN 1C DEB", "OBJECT_ID": "1999-025DNG", "EPOCH": "2025-12-07T05:30:55.334304", "MEAN_MOTION": 14.16982341, "ECCENTRICITY": 0.00547007, "INCLINATION": 98.5553, "RA_OF_ASC_NODE": 328.2048, "ARG_OF_PERICENTER": 72.2006, "MEAN_ANOMALY": 288.5127, "EPHEMERIS_TYPE": 0, "CLASSIFICATION_TYPE": "U", "NORAD_CAT_ID": 35176, "ELEMENT_SET_NO": 999, "REV_AT_EPOCH": 90850, "BSTAR": 0.0005910593, "MEAN_MOTION_DOT": 1.163e-05, "MEAN_MOTION_DDOT": 0}, "tle": {"line1": "1 35176U 99025DNG 25341.22980711  .00001163  00000+0  59106-3 0  9996", "line2": "2 35176  98.5553 328.2048 0054700  72.2006 288.5127 14.16982341908503"}}, "geometry": {"type": "Point", "coordinates": [-27.492411520013476, -10.864848247428103]}}, {"type": "Feature", "properties": {"norad_id": 35191, "name": "FENGYUN 1C DEB", "group": "fengyun-1c-debris", "lat": 1.1207656266571429, "lon": -34.217602333459226, "alt_km": 987.8640756145687, "timestamp": "2025-12-09T23:33:24.142824+00:00", "meta": {"OBJECT_NAME": "FENGYUN 1C DEB", "OBJECT_ID": "1999-025DNX", "EPOCH": "2025-12-08T04:23:56.923872", "MEAN_MOTION": 13.91200185, "ECCENTRICITY": 0.01020753, "INCLINATION": 99.0152, "RA_OF_ASC_NODE": 324.2143, "ARG_OF_PERICENTER": 221.2669, "MEAN_ANOMALY": 138.0743, "EPHEMERIS_TYPE": 0, "CLASSIFICATION_TYPE": "U", "NORAD_CAT_ID": 35191, "ELEMENT_SET_NO": 999, "REV_AT_EPOCH": 87838, "BSTAR": 0.00028240646, "MEAN_MOTION_DOT": 3.28e-06, "MEAN_MOTION_DDOT": 0}, "tle": {"line1": "1 35191U 99025DNX 25342.18329773  .00000328  00000+0  28241-3 0  9992", "line2": "2 35191  99.0152 324.2143 0102075 221.2669 138.0743 13.91200185878389"}}, "geometry": {"type": "Point", "coordinates": [-34.217602333459226, 1.1207656266571429]}}]}